{
  "type": "FeatureCollection",
  "features": [{
    "type": "Feature",
    "properties": {
      "id": "colosio-21-de-febrero",
      "name": "Desvío 21 de Febrero",
      "status": "active-hospitales-1-and-2",
      "active": true,
      "source": "Geometría proporcionada por el responsable del proyecto",
      "endDate": null,
      "candidateRouteIds": ["cantera-hospitales-1", "cantera-hospitales-2"],
      "appliedRouteIds": ["cantera-hospitales-1", "cantera-hospitales-2"],
      "note": "Hospitales 1 toma el trazo en sentido sur a norte hasta el vértice 4, donde conecta con la continuación a avenida Victoria. Hospitales 2 recorre la línea norte a sur."
    },
    "geometry": {
      "type": "LineString",
      "coordinates": [
        [-104.8847024,21.5141915],
        [-104.8846959,21.5141035],
        [-104.8849972,21.5134449],
        [-104.8855646,21.5122701],
        [-104.8860988,21.5111785],
        [-104.8852252,21.5108061],
        [-104.8835477,21.5101136],
        [-104.8836725,21.5097853],
        [-104.8837349,21.5095679],
        [-104.8837586,21.5094719],
        [-104.8838231,21.5090154],
        [-104.8831561,21.5088332],
        [-104.8830894,21.5087972],
        [-104.8830548,21.5087287],
        [-104.8830307,21.5085628],
        [-104.8830049,21.5083466],
        [-104.8829726,21.5081104],
        [-104.8829489,21.5079903],
        [-104.8829252,21.5078842],
        [-104.8828779,21.5077481],
        [-104.8828263,21.507684],
        [-104.8827058,21.5076159],
        [-104.8815395,21.5074558],
        [-104.8814419,21.5074374],
        [-104.8808674,21.5072472],
        [-104.880417,21.5071248],
        [-104.8798666,21.5069054],
        [-104.8791673,21.5066311],
        [-104.8787114,21.5063441],
        [-104.8783844,21.5061059],
        [-104.8783155,21.5060879],
        [-104.8771105,21.5064062],
        [-104.8763424,21.5066104]
      ]
    }
  }]
}
