{
  "type": "FeatureCollection",
  "features": [
    {
      "type": "Feature",
      "properties": {
        "id": "colosio-metates",
        "name": "Camino Viejo a los Metates",
        "active": true,
        "endDate": null,
        "source": "Trazo suministrado por el responsable del proyecto",
        "routeIds": [
          "progreso-4",
          "progreso-5",
          "jazmines"
        ],
        "directions": "both"
      },
      "geometry": {
        "type": "LineString",
        "coordinates": [
          [
            -104.8846416,
            21.5141543
          ],
          [
            -104.8845686,
            21.5142146
          ],
          [
            -104.8843496,
            21.514656
          ],
          [
            -104.8841914,
            21.5147428
          ],
          [
            -104.8841347,
            21.514856
          ],
          [
            -104.8834858,
            21.5154521
          ],
          [
            -104.8833128,
            21.5156127
          ],
          [
            -104.8831885,
            21.5154778
          ],
          [
            -104.8827773,
            21.5148987
          ],
          [
            -104.8825766,
            21.5146334
          ],
          [
            -104.8824251,
            21.5144437
          ],
          [
            -104.8823039,
            21.5143131
          ],
          [
            -104.8821181,
            21.514139
          ],
          [
            -104.8819803,
            21.5140443
          ],
          [
            -104.8817697,
            21.5139375
          ],
          [
            -104.8814914,
            21.5138174
          ],
          [
            -104.881207,
            21.5137331
          ],
          [
            -104.8810865,
            21.5137025
          ],
          [
            -104.8806943,
            21.5136261
          ],
          [
            -104.8802923,
            21.5135184
          ],
          [
            -104.8799006,
            21.5133614
          ],
          [
            -104.8796614,
            21.5132571
          ],
          [
            -104.8792538,
            21.5130532
          ],
          [
            -104.8789643,
            21.5129084
          ],
          [
            -104.8784801,
            21.5126569
          ],
          [
            -104.8781596,
            21.5124902
          ],
          [
            -104.8777757,
            21.5122862
          ],
          [
            -104.877266,
            21.5120213
          ],
          [
            -104.8767719,
            21.5117652
          ],
          [
            -104.8763825,
            21.5115651
          ],
          [
            -104.8761827,
            21.5114616
          ],
          [
            -104.8761131,
            21.5114242
          ],
          [
            -104.8760499,
            21.5113613
          ],
          [
            -104.8759732,
            21.511267
          ],
          [
            -104.8759425,
            21.5111762
          ],
          [
            -104.8759295,
            21.510936
          ],
          [
            -104.8759121,
            21.5105269
          ],
          [
            -104.875898,
            21.5101822
          ],
          [
            -104.8758548,
            21.5097037
          ],
          [
            -104.8758331,
            21.5095964
          ],
          [
            -104.8757117,
            21.509131
          ],
          [
            -104.8755352,
            21.5085692
          ],
          [
            -104.8753746,
            21.5080478
          ],
          [
            -104.8752499,
            21.5076433
          ],
          [
            -104.8751092,
            21.5071126
          ],
          [
            -104.8749979,
            21.5066913
          ],
          [
            -104.8749449,
            21.5064963
          ],
          [
            -104.8748131,
            21.5060692
          ],
          [
            -104.8746669,
            21.5055857
          ],
          [
            -104.8745484,
            21.5051805
          ],
          [
            -104.87441,
            21.5047177
          ],
          [
            -104.8743255,
            21.5044435
          ],
          [
            -104.8741529,
            21.5038989
          ],
          [
            -104.8739566,
            21.5032692
          ],
          [
            -104.8737945,
            21.5027355
          ],
          [
            -104.8736185,
            21.5021504
          ],
          [
            -104.8733974,
            21.5013923
          ],
          [
            -104.873119,
            21.5004895
          ],
          [
            -104.8728397,
            21.49966
          ],
          [
            -104.872677,
            21.4992681
          ],
          [
            -104.8723643,
            21.4987398
          ],
          [
            -104.8721746,
            21.4984648
          ],
          [
            -104.8721303,
            21.4983993
          ],
          [
            -104.8721173,
            21.498364
          ],
          [
            -104.8721237,
            21.498303
          ],
          [
            -104.8721642,
            21.4982434
          ],
          [
            -104.8722107,
            21.4982027
          ],
          [
            -104.8722778,
            21.4981579
          ],
          [
            -104.8723765,
            21.4981343
          ],
          [
            -104.8726507,
            21.49807
          ],
          [
            -104.8728613,
            21.498022
          ],
          [
            -104.8729274,
            21.4980059
          ],
          [
            -104.8732491,
            21.4978923
          ],
          [
            -104.8733534,
            21.4978376
          ],
          [
            -104.8734385,
            21.4977935
          ],
          [
            -104.8735499,
            21.4977611
          ],
          [
            -104.873633,
            21.497734
          ],
          [
            -104.8736862,
            21.4977155
          ]
        ]
      }
    }
  ]
}
